{
 "generated_at": "2026-07-20T08:05:52Z",
 "sources": [
  {
   "name": "CelesTrak",
   "url": "https://celestrak.org/NORAD/elements/",
   "license": "frei verfügbar; Attribution. Ursprünglich USSPACECOM/Space-Track."
  },
  {
   "name": "GCAT (J. McDowell, planet4589.org)",
   "url": "https://planet4589.org/space/gcat/",
   "license": "CC-BY 4.0"
  }
 ],
 "satellites": [
  {
   "norad": 40275,
   "name": "YAOGAN-22",
   "intl": "2014-063A",
   "group": "resource",
   "gcat": {
    "class": null,
    "category": null,
    "owner": null,
    "state": null
   },
   "omm": {
    "OBJECT_NAME": "YAOGAN-22",
    "OBJECT_ID": "2014-063A",
    "EPOCH": "2026-07-19T19:28:40.589760",
    "MEAN_MOTION": 13.15531736,
    "ECCENTRICITY": 0.0006903,
    "INCLINATION": 100.7769,
    "RA_OF_ASC_NODE": 352.6324,
    "ARG_OF_PERICENTER": 115.6728,
    "MEAN_ANOMALY": 244.5096,
    "EPHEMERIS_TYPE": 0,
    "CLASSIFICATION_TYPE": "U",
    "NORAD_CAT_ID": 40275,
    "ELEMENT_SET_NO": 999,
    "REV_AT_EPOCH": 56410,
    "BSTAR": 0.000019096,
    "MEAN_MOTION_DOT": -4e-7,
    "MEAN_MOTION_DDOT": 0
   }
  },
  {
   "norad": 40310,
   "name": "YAOGAN-24",
   "intl": "2014-072A",
   "group": "resource",
   "gcat": {
    "class": "D",
    "category": "IMG",
    "owner": "ZZB",
    "state": "CN"
   },
   "omm": {
    "OBJECT_NAME": "YAOGAN-24",
    "OBJECT_ID": "2014-072A",
    "EPOCH": "2026-07-19T19:44:12.273792",
    "MEAN_MOTION": 14.76123577,
    "ECCENTRICITY": 0.0014956,
    "INCLINATION": 98.1536,
    "RA_OF_ASC_NODE": 338.4393,
    "ARG_OF_PERICENTER": 155.0993,
    "MEAN_ANOMALY": 205.0941,
    "EPHEMERIS_TYPE": 0,
    "CLASSIFICATION_TYPE": "U",
    "NORAD_CAT_ID": 40310,
    "ELEMENT_SET_NO": 999,
    "REV_AT_EPOCH": 62853,
    "BSTAR": 0.00013788,
    "MEAN_MOTION_DOT": 0.000009,
    "MEAN_MOTION_DDOT": 0
   }
  },
  {
   "norad": 40362,
   "name": "YAOGAN-26",
   "intl": "2014-088A",
   "group": "resource",
   "gcat": {
    "class": "D",
    "category": "IMG",
    "owner": "ZZB",
    "state": "CN"
   },
   "omm": {
    "OBJECT_NAME": "YAOGAN-26",
    "OBJECT_ID": "2014-088A",
    "EPOCH": "2026-07-19T20:13:11.523072",
    "MEAN_MOTION": 15.48557672,
    "ECCENTRICITY": 0.0001143,
    "INCLINATION": 97.0659,
    "RA_OF_ASC_NODE": 200.3161,
    "ARG_OF_PERICENTER": 306.3685,
    "MEAN_ANOMALY": 53.7461,
    "EPHEMERIS_TYPE": 0,
    "CLASSIFICATION_TYPE": "U",
    "NORAD_CAT_ID": 40362,
    "ELEMENT_SET_NO": 999,
    "REV_AT_EPOCH": 64275,
    "BSTAR": 0.00014981,
    "MEAN_MOTION_DOT": 0.00007893,
    "MEAN_MOTION_DDOT": 0
   }
  },
  {
   "norad": 40878,
   "name": "YAOGAN-27",
   "intl": "2015-040A",
   "group": "resource",
   "gcat": {
    "class": "D",
    "category": "IMG",
    "owner": "ZZB",
    "state": "CN"
   },
   "omm": {
    "OBJECT_NAME": "YAOGAN-27",
    "OBJECT_ID": "2015-040A",
    "EPOCH": "2026-07-19T20:52:07.996800",
    "MEAN_MOTION": 13.16070964,
    "ECCENTRICITY": 0.0008707,
    "INCLINATION": 100.1177,
    "RA_OF_ASC_NODE": 185.8368,
    "ARG_OF_PERICENTER": 135.0938,
    "MEAN_ANOMALY": 225.0881,
    "EPHEMERIS_TYPE": 0,
    "CLASSIFICATION_TYPE": "U",
    "NORAD_CAT_ID": 40878,
    "ELEMENT_SET_NO": 999,
    "REV_AT_EPOCH": 52196,
    "BSTAR": -0.00008404,
    "MEAN_MOTION_DOT": -7.4e-7,
    "MEAN_MOTION_DDOT": 0
   }
  },
  {
   "norad": 41026,
   "name": "YAOGAN-28",
   "intl": "2015-064A",
   "group": "resource",
   "gcat": {
    "class": "D",
    "category": "IMG",
    "owner": "ZZB",
    "state": "CN"
   },
   "omm": {
    "OBJECT_NAME": "YAOGAN-28",
    "OBJECT_ID": "2015-064A",
    "EPOCH": "2026-07-19T19:29:56.335776",
    "MEAN_MOTION": 15.27793173,
    "ECCENTRICITY": 0.0011991,
    "INCLINATION": 97.3117,
    "RA_OF_ASC_NODE": 338.4254,
    "ARG_OF_PERICENTER": 78.9401,
    "MEAN_ANOMALY": 281.3186,
    "EPHEMERIS_TYPE": 0,
    "CLASSIFICATION_TYPE": "U",
    "NORAD_CAT_ID": 41026,
    "ELEMENT_SET_NO": 999,
    "REV_AT_EPOCH": 59566,
    "BSTAR": 0.00012783,
    "MEAN_MOTION_DOT": 0.00003403,
    "MEAN_MOTION_DDOT": 0
   }
  },
  {
   "norad": 41038,
   "name": "YAOGAN-29",
   "intl": "2015-069A",
   "group": "resource",
   "gcat": {
    "class": "D",
    "category": "IMG-R",
    "owner": "ZZB",
    "state": "CN"
   },
   "omm": {
    "OBJECT_NAME": "YAOGAN-29",
    "OBJECT_ID": "2015-069A",
    "EPOCH": "2026-07-19T19:58:11.970336",
    "MEAN_MOTION": 14.8310726,
    "ECCENTRICITY": 0.0000277,
    "INCLINATION": 98.0016,
    "RA_OF_ASC_NODE": 229.5147,
    "ARG_OF_PERICENTER": 3.4151,
    "MEAN_ANOMALY": 356.7064,
    "EPHEMERIS_TYPE": 0,
    "CLASSIFICATION_TYPE": "U",
    "NORAD_CAT_ID": 41038,
    "ELEMENT_SET_NO": 999,
    "REV_AT_EPOCH": 57546,
    "BSTAR": 0.00001254,
    "MEAN_MOTION_DOT": 4.8e-7,
    "MEAN_MOTION_DDOT": 0
   }
  },
  {
   "norad": 32289,
   "name": "YAOGAN-3",
   "intl": "2007-055A",
   "group": "resource",
   "gcat": {
    "class": null,
    "category": null,
    "owner": null,
    "state": null
   },
   "omm": {
    "OBJECT_NAME": "YAOGAN-3",
    "OBJECT_ID": "2007-055A",
    "EPOCH": "2026-07-19T21:08:15.250848",
    "MEAN_MOTION": 14.90888354,
    "ECCENTRICITY": 0.0001347,
    "INCLINATION": 97.8139,
    "RA_OF_ASC_NODE": 230.4355,
    "ARG_OF_PERICENTER": 80.993,
    "MEAN_ANOMALY": 279.144,
    "EPHEMERIS_TYPE": 0,
    "CLASSIFICATION_TYPE": "U",
    "NORAD_CAT_ID": 32289,
    "ELEMENT_SET_NO": 999,
    "REV_AT_EPOCH": 1074,
    "BSTAR": 0.000052029,
    "MEAN_MOTION_DOT": 0.00000457,
    "MEAN_MOTION_DDOT": 0
   }
  },
  {
   "norad": 33446,
   "name": "YAOGAN-4",
   "intl": "2008-061A",
   "group": "resource",
   "gcat": {
    "class": null,
    "category": null,
    "owner": null,
    "state": null
   },
   "omm": {
    "OBJECT_NAME": "YAOGAN-4",
    "OBJECT_ID": "2008-061A",
    "EPOCH": "2026-07-19T19:38:33.354240",
    "MEAN_MOTION": 14.83256289,
    "ECCENTRICITY": 0.0013456,
    "INCLINATION": 97.9302,
    "RA_OF_ASC_NODE": 134.0892,
    "ARG_OF_PERICENTER": 329.9882,
    "MEAN_ANOMALY": 30.0559,
    "EPHEMERIS_TYPE": 0,
    "CLASSIFICATION_TYPE": "U",
    "NORAD_CAT_ID": 33446,
    "ELEMENT_SET_NO": 999,
    "REV_AT_EPOCH": 95050,
    "BSTAR": 0.000063126,
    "MEAN_MOTION_DOT": 0.00000463,
    "MEAN_MOTION_DDOT": 0
   }
  },
  {
   "norad": 36110,
   "name": "YAOGAN-7",
   "intl": "2009-069A",
   "group": "resource",
   "gcat": {
    "class": null,
    "category": null,
    "owner": null,
    "state": null
   },
   "omm": {
    "OBJECT_NAME": "YAOGAN-7",
    "OBJECT_ID": "2009-069A",
    "EPOCH": "2026-07-19T10:46:13.969920",
    "MEAN_MOTION": 14.78037618,
    "ECCENTRICITY": 0.00232886,
    "INCLINATION": 98.0026,
    "RA_OF_ASC_NODE": 86.1103,
    "ARG_OF_PERICENTER": 296.9883,
    "MEAN_ANOMALY": 62.895,
    "EPHEMERIS_TYPE": 0,
    "CLASSIFICATION_TYPE": "U",
    "NORAD_CAT_ID": 36110,
    "ELEMENT_SET_NO": 999,
    "REV_AT_EPOCH": 89439,
    "BSTAR": 0.000031017574,
    "MEAN_MOTION_DOT": 0.00000171,
    "MEAN_MOTION_DDOT": 0
   }
  },
  {
   "norad": 38038,
   "name": "ZIYUAN 1-02C (ZY 1-02C)",
   "intl": "2011-079A",
   "group": "resource",
   "gcat": {
    "class": null,
    "category": null,
    "owner": null,
    "state": null
   },
   "omm": {
    "OBJECT_NAME": "ZIYUAN 1-02C (ZY 1-02C)",
    "OBJECT_ID": "2011-079A",
    "EPOCH": "2026-07-19T20:26:46.333824",
    "MEAN_MOTION": 14.38237378,
    "ECCENTRICITY": 0.0005907,
    "INCLINATION": 98.4052,
    "RA_OF_ASC_NODE": 267.4757,
    "ARG_OF_PERICENTER": 199.2598,
    "MEAN_ANOMALY": 267.965,
    "EPHEMERIS_TYPE": 0,
    "CLASSIFICATION_TYPE": "U",
    "NORAD_CAT_ID": 38038,
    "ELEMENT_SET_NO": 999,
    "REV_AT_EPOCH": 76390,
    "BSTAR": 0.00002556,
    "MEAN_MOTION_DOT": 3.5e-7,
    "MEAN_MOTION_DDOT": 0
   }
  }
 ]
}
