YAOGAN-3                
1 32289U 07055A   26200.88073207  .00000457  00000+0  52029-4 0  9993
2 32289  97.8139 230.4355 0001347  80.9930 279.1440 14.90888354 10748
YAOGAN-4                
1 33446U 08061A   26200.81844160  .00000463  00000+0  63126-4 0  9991
2 33446  97.9302 134.0892 0013456 329.9882  30.0559 14.83256289950508
YAOGAN-7                
1 36110U 09069A   26200.44877280  .00000171  00000+0  31018-4 0  9990
2 36110  98.0026  86.1103 0023288 296.9883  62.8950 14.78037618894393
ZIYUAN 1-02C (ZY 1-02C) 
1 38038U 11079A   26200.85192516  .00000035  00000+0  25560-4 0  9996
2 38038  98.4052 267.4757 0005907 199.2598 267.9650 14.38237378763900
YAOGAN-22               
1 40275U 14063A   26200.81158090 -.00000040  00000+0  19096-4 0  9997
2 40275 100.7769 352.6324 0006903 115.6728 244.5096 13.15531736564104
YAOGAN-24               
1 40310U 14072A   26200.82236428  .00000900  00000+0  13788-3 0  9995
2 40310  98.1536 338.4393 0014956 155.0993 205.0941 14.76123577628530
YAOGAN-26               
1 40362U 14088A   26200.84249448  .00007893  00000+0  14981-3 0  9991
2 40362  97.0659 200.3161 0001143 306.3685  53.7461 15.48557672642756
YAOGAN-27               
1 40878U 15040A   26200.86953700 -.00000074  00000+0 -84040-4 0  9997
2 40878 100.1177 185.8368 0008707 135.0938 225.0881 13.16070964521962
YAOGAN-28               
1 41026U 15064A   26200.81245759  .00003403  00000+0  12783-3 0  9993
2 41026  97.3117 338.4254 0011991  78.9401 281.3186 15.27793173595667
YAOGAN-29               
1 41038U 15069A   26200.83208299  .00000048  00000+0  12540-4 0  9995
2 41038  98.0016 229.5147 0000277   3.4151 356.7064 14.83107260575462
